{"type": "FeatureCollection", "features": [{"type": "Feature", "properties": {"norad_id": 22490, "name": "SCD 1", "group": "resource", "lat": -19.96348135770797, "lon": -80.63952375979976, "alt_km": 729.0048816483522, "timestamp": "2025-12-04T07:39:35.826837+00:00", "meta": {"OBJECT_NAME": "SCD 1", "OBJECT_ID": "1993-009B", "EPOCH": "2025-12-03T11:00:20.206080", "MEAN_MOTION": 14.45987996, "ECCENTRICITY": 0.00418156, "INCLINATION": 24.971, "RA_OF_ASC_NODE": 335.9791, "ARG_OF_PERICENTER": 226.2897, "MEAN_ANOMALY": 270.2791, "EPHEMERIS_TYPE": 0, "CLASSIFICATION_TYPE": "U", "NORAD_CAT_ID": 22490, "ELEMENT_SET_NO": 999, "REV_AT_EPOCH": 73275, "BSTAR": 0.00014086793, "MEAN_MOTION_DOT": 7.02e-06, "MEAN_MOTION_DDOT": 0}, "tle": {"line1": "1 22490U 93009B   25337.45856720  .00000702  00000+0  14087-3 0  9996", "line2": "2 22490  24.9710 335.9791 0041815 226.2897 270.2791 14.45987996732758"}}, "geometry": {"type": "Point", "coordinates": [-80.63952375979976, -19.96348135770797]}}, {"type": "Feature", "properties": {"norad_id": 25397, "name": "TECHSAT 1B (GO-32)", "group": "resource", "lat": -34.33725196208533, "lon": 135.12815514661432, "alt_km": 818.0518820253137, "timestamp": "2025-12-04T07:39:35.826875+00:00", "meta": {"OBJECT_NAME": "TECHSAT 1B (GO-32)", "OBJECT_ID": "1998-043D", "EPOCH": "2025-12-03T22:13:32.295072", "MEAN_MOTION": 14.24373188, "ECCENTRICITY": 0.00022214, "INCLINATION": 98.9913, "RA_OF_ASC_NODE": 320.9351, "ARG_OF_PERICENTER": 71.8261, "MEAN_ANOMALY": 288.3159, "EPHEMERIS_TYPE": 0, "CLASSIFICATION_TYPE": "U", "NORAD_CAT_ID": 25397, "ELEMENT_SET_NO": 999, "REV_AT_EPOCH": 42353, "BSTAR": 0.00010215197, "MEAN_MOTION_DOT": 1.9e-06, "MEAN_MOTION_DDOT": 0}, "tle": {"line1": "1 25397U 98043D   25337.92606823  .00000190  00000+0  10215-3 0  9997", "line2": "2 25397  98.9913 320.9351 0002221  71.8261 288.3159 14.24373188423536"}}, "geometry": {"type": "Point", "coordinates": [135.12815514661432, -34.33725196208533]}}, {"type": "Feature", "properties": {"norad_id": 25504, "name": "SCD 2", "group": "resource", "lat": -1.9974287481189121, "lon": -170.47009625181954, "alt_km": 746.854178219517, "timestamp": "2025-12-04T07:39:35.826889+00:00", "meta": {"OBJECT_NAME": "SCD 2", "OBJECT_ID": "1998-060A", "EPOCH": "2025-12-03T07:34:14.746944", "MEAN_MOTION": 14.45414838, "ECCENTRICITY": 0.0016689, "INCLINATION": 24.9937, "RA_OF_ASC_NODE": 200.0088, "ARG_OF_PERICENTER": 212.8278, "MEAN_ANOMALY": 308.9112, "EPHEMERIS_TYPE": 0, "CLASSIFICATION_TYPE": "U", "NORAD_CAT_ID": 25504, "ELEMENT_SET_NO": 999, "REV_AT_EPOCH": 43195, "BSTAR": 0.00010911, "MEAN_MOTION_DOT": 5.73e-06, "MEAN_MOTION_DDOT": 0}, "tle": {"line1": "1 25504U 98060A   25337.31544846  .00000573  00000+0  10911-3 0  9993", "line2": "2 25504  24.9937 200.0088 0016689 212.8278 308.9112 14.45414838431958"}}, "geometry": {"type": "Point", "coordinates": [-170.47009625181954, -1.9974287481189121]}}, {"type": "Feature", "properties": {"norad_id": 25757, "name": "DLR-TUBSAT", "group": "resource", "lat": -52.82858129172517, "lon": -25.837596873545507, "alt_km": 724.4196900293045, "timestamp": "2025-12-04T07:39:35.826901+00:00", "meta": {"OBJECT_NAME": "DLR-TUBSAT", "OBJECT_ID": "1999-029B", "EPOCH": "2025-12-03T21:59:10.894848", "MEAN_MOTION": 14.52352412, "ECCENTRICITY": 0.0013422, "INCLINATION": 98.6555, "RA_OF_ASC_NODE": 322.1579, "ARG_OF_PERICENTER": 220.596, "MEAN_ANOMALY": 139.4235, "EPHEMERIS_TYPE": 0, "CLASSIFICATION_TYPE": "U", "NORAD_CAT_ID": 25757, "ELEMENT_SET_NO": 999, "REV_AT_EPOCH": 40490, "BSTAR": 8.1828387e-05, "MEAN_MOTION_DOT": 2.85e-06, "MEAN_MOTION_DDOT": 0}, "tle": {"line1": "1 25757U 99029B   25337.91609832  .00000285  00000+0  81828-4 0  9998", "line2": "2 25757  98.6555 322.1579 0013422 220.5960 139.4235 14.52352412404904"}}, "geometry": {"type": "Point", "coordinates": [-25.837596873545507, -52.82858129172517]}}, {"type": "Feature", "properties": {"norad_id": 25994, "name": "TERRA", "group": "resource", "lat": 67.96064305270377, "lon": -129.42419046805318, "alt_km": 681.1174712513275, "timestamp": "2025-12-04T07:39:35.826911+00:00", "meta": {"OBJECT_NAME": "TERRA", "OBJECT_ID": "1999-068A", "EPOCH": "2025-12-03T22:05:08.452608", "MEAN_MOTION": 14.60937035, "ECCENTRICITY": 0.00034241, "INCLINATION": 97.9761, "RA_OF_ASC_NODE": 29.9277, "ARG_OF_PERICENTER": 115.5396, "MEAN_ANOMALY": 58.1773, "EPHEMERIS_TYPE": 0, "CLASSIFICATION_TYPE": "U", "NORAD_CAT_ID": 25994, "ELEMENT_SET_NO": 999, "REV_AT_EPOCH": 38109, "BSTAR": 0.0002141, "MEAN_MOTION_DOT": 1.004e-05, "MEAN_MOTION_DDOT": 0}, "tle": {"line1": "1 25994U 99068A   25337.92023672  .00001004  00000+0  21410-3 0  9997", "line2": "2 25994  97.9761  29.9277 0003424 115.5396  58.1773 14.60937035381099"}}, "geometry": {"type": "Point", "coordinates": [-129.42419046805318, 67.96064305270377]}}, {"type": "Feature", "properties": {"norad_id": 27004, "name": "MAROC-TUBSAT", "group": "resource", "lat": -36.32586354532355, "lon": 153.91062662724227, "alt_km": 994.141494574962, "timestamp": "2025-12-04T07:39:35.826922+00:00", "meta": {"OBJECT_NAME": "MAROC-TUBSAT", "OBJECT_ID": "2001-056D", "EPOCH": "2025-12-03T17:54:00.137088", "MEAN_MOTION": 13.70252218, "ECCENTRICITY": 0.0019098, "INCLINATION": 99.7912, "RA_OF_ASC_NODE": 146.0334, "ARG_OF_PERICENTER": 284.0825, "MEAN_ANOMALY": 92.2061, "EPHEMERIS_TYPE": 0, "CLASSIFICATION_TYPE": "U", "NORAD_CAT_ID": 27004, "ELEMENT_SET_NO": 999, "REV_AT_EPOCH": 19942, "BSTAR": 3.5064177e-05, "MEAN_MOTION_DOT": -1.6e-07, "MEAN_MOTION_DDOT": 0}, "tle": {"line1": "1 27004U 01056D   25337.74583492 -.00000016  00000+0  35064-4 0  9996", "line2": "2 27004  99.7912 146.0334 0019098 284.0825  92.2061 13.70252218199425"}}, "geometry": {"type": "Point", "coordinates": [153.91062662724227, -36.32586354532355]}}, {"type": "Feature", "properties": {"norad_id": 27424, "name": "AQUA", "group": "resource", "lat": -40.61933637151807, "lon": -53.654780621353254, "alt_km": 694.435942722982, "timestamp": "2025-12-04T07:39:35.826933+00:00", "meta": {"OBJECT_NAME": "AQUA", "OBJECT_ID": "2002-022A", "EPOCH": "2025-12-03T22:24:45.484128", "MEAN_MOTION": 14.61776098, "ECCENTRICITY": 7.58e-05, "INCLINATION": 98.4024, "RA_OF_ASC_NODE": 298.6706, "ARG_OF_PERICENTER": 109.5998, "MEAN_ANOMALY": 342.9166, "EPHEMERIS_TYPE": 0, "CLASSIFICATION_TYPE": "U", "NORAD_CAT_ID": 27424, "ELEMENT_SET_NO": 999, "REV_AT_EPOCH": 25474, "BSTAR": 0.00041796252, "MEAN_MOTION_DOT": 2.036e-05, "MEAN_MOTION_DDOT": 0}, "tle": {"line1": "1 27424U 02022A   25337.93385977  .00002036  00000+0  41796-3 0  9996", "line2": "2 27424  98.4024 298.6706 0000758 109.5998 342.9166 14.61776098254749"}}, "geometry": {"type": "Point", "coordinates": [-53.654780621353254, -40.61933637151807]}}, {"type": "Feature", "properties": {"norad_id": 28051, "name": "IRS-P6 (RESOURCESAT-1)", "group": "resource", "lat": -61.558288224807484, "lon": -176.36057257979277, "alt_km": 741.990515555246, "timestamp": "2025-12-04T07:39:35.826943+00:00", "meta": {"OBJECT_NAME": "IRS-P6 (RESOURCESAT-1)", "OBJECT_ID": "2003-046A", "EPOCH": "2025-12-04T00:22:13.159776", "MEAN_MOTION": 14.36068597, "ECCENTRICITY": 0.00636873, "INCLINATION": 98.219, "RA_OF_ASC_NODE": 18.8264, "ARG_OF_PERICENTER": 206.9627, "MEAN_ANOMALY": 265.8717, "EPHEMERIS_TYPE": 0, "CLASSIFICATION_TYPE": "U", "NORAD_CAT_ID": 28051, "ELEMENT_SET_NO": 999, "REV_AT_EPOCH": 15251, "BSTAR": 0.00016711043, "MEAN_MOTION_DOT": 4.56e-06, "MEAN_MOTION_DDOT": 0}, "tle": {"line1": "1 28051U 03046A   25338.01543009  .00000456  00000+0  16711-3 0  9995", "line2": "2 28051  98.2190  18.8264 0063687 206.9627 265.8717 14.36068597152517"}}, "geometry": {"type": "Point", "coordinates": [-176.36057257979277, -61.558288224807484]}}, {"type": "Feature", "properties": {"norad_id": 28220, "name": "SHIYAN-1 (SY-1)", "group": "resource", "lat": -33.59108127894209, "lon": -145.92554653185192, "alt_km": 492.10753026960356, "timestamp": "2025-12-04T07:39:35.826953+00:00", "meta": {"OBJECT_NAME": "SHIYAN-1 (SY-1)", "OBJECT_ID": "2004-012A", "EPOCH": "2025-12-03T18:09:04.722624", "MEAN_MOTION": 15.27770603, "ECCENTRICITY": 0.00062807, "INCLINATION": 97.8956, "RA_OF_ASC_NODE": 38.7673, "ARG_OF_PERICENTER": 358.887, "MEAN_ANOMALY": 1.2352, "EPHEMERIS_TYPE": 0, "CLASSIFICATION_TYPE": "U", "NORAD_CAT_ID": 28220, "ELEMENT_SET_NO": 999, "REV_AT_EPOCH": 18119, "BSTAR": 0.0006591732, "MEAN_MOTION_DOT": 0.00017834, "MEAN_MOTION_DDOT": 0}, "tle": {"line1": "1 28220U 04012A   25337.75630466  .00017834  00000+0  65917-3 0  9991", "line2": "2 28220  97.8956  38.7673 0006280 358.8870   1.2352 15.27770603181190"}}, "geometry": {"type": "Point", "coordinates": [-145.92554653185192, -33.59108127894209]}}, {"type": "Feature", "properties": {"norad_id": 28376, "name": "AURA", "group": "resource", "lat": 62.35668616283869, "lon": 124.72604983876042, "alt_km": 683.4475112445798, "timestamp": "2025-12-04T07:39:35.826963+00:00", "meta": {"OBJECT_NAME": "AURA", "OBJECT_ID": "2004-026A", "EPOCH": "2025-12-03T22:54:36.598464", "MEAN_MOTION": 14.60914147, "ECCENTRICITY": 0.00010798, "INCLINATION": 98.3171, "RA_OF_ASC_NODE": 288.1412, "ARG_OF_PERICENTER": 91.583, "MEAN_ANOMALY": 268.5494, "EPHEMERIS_TYPE": 0, "CLASSIFICATION_TYPE": "U", "NORAD_CAT_ID": 28376, "ELEMENT_SET_NO": 999, "REV_AT_EPOCH": 13770, "BSTAR": 0.00042854449, "MEAN_MOTION_DOT": 2.05e-05, "MEAN_MOTION_DDOT": 0}, "tle": {"line1": "1 28376U 04026A   25337.95459026  .00002050  00000+0  42854-3 0  9990", "line2": "2 28376  98.3171 288.1412 0001079  91.5830 268.5494 14.60914147137709"}}, "geometry": {"type": "Point", "coordinates": [124.72604983876042, 62.35668616283869]}}]}